{"fetched_at":"2026-03-30T20:46:33Z","count":15425,"tles":[{"name":"STARLINK-11429 [DTC]","line1":"1 62061U 24217E   26087.92512409  .00142083  00000+0  11593-2 0  9994","line2":"2 62061  53.1578 336.5074 0001543  44.6012 315.5130 15.69676079 78193","category":"Starlink"}]}